start=new Date('2022-04-14T00:00:00.000Z').valueOf();
sats=[{"INCLINATION":"53.0551","CLASSIFICATION_TYPE":"U","MEAN_MOTION_DDOT":"0.0000000000000","SITE":"AFETR","LAUNCH_DATE":"2021-05-04","EPOCH":"2022-04-13T19:04:24.435264","CENTER_NAME":"EARTH","EPHEMERIS_TYPE":"0","TLE_LINE2":"2 48365  53.0551 277.7215 0001450  76.9262 283.1888 15.06397335 52186","BSTAR":"0.00003108800000","REF_FRAME":"TEME","ECCENTRICITY":"0.00014500","DECAY_DATE":null,"TLE_LINE1":"1 48365U 21038N   22103.79472726  .00000182  00000-0  31088-4 0  9997","MEAN_ANOMALY":"283.1888","OBJECT_NAME":"STARLINK-2608","MEAN_MOTION_DOT":"0.00000182","ELEMENT_SET_NO":"999","MEAN_MOTION":"15.06397335","MEAN_ELEMENT_THEORY":"SGP4","FILE":"3400454","PERIAPSIS":"546.218","SEMIMAJOR_AXIS":"6925.357","PERIOD":"95.592","ARG_OF_PERICENTER":"76.9262","OBJECT_ID":"2021-038N","NORAD_CAT_ID":"48365","OBJECT_TYPE":"PAYLOAD","RA_OF_ASC_NODE":"277.7215","TIME_SYSTEM":"UTC","GP_ID":"201174050","RCS_SIZE":"LARGE","APOAPSIS":"548.226","REV_AT_EPOCH":"5218","COUNTRY_CODE":"US"},{"FILE":"3400454","ARG_OF_PERICENTER":"68.3961","OBJECT_ID":"2021-038P","PERIAPSIS":"546.180","PERIOD":"95.592","SEMIMAJOR_AXIS":"6925.346","ELEMENT_SET_NO":"999","MEAN_ELEMENT_THEORY":"SGP4","MEAN_MOTION":"15.06400902","MEAN_MOTION_DOT":"0.00003364","MEAN_ANOMALY":"291.7186","OBJECT_NAME":"STARLINK-2631","TLE_LINE1":"1 48366U 21038P   22103.84864211  .00003364  00000-0  24464-3 0  9992","COUNTRY_CODE":"US","REV_AT_EPOCH":"5225","RCS_SIZE":"LARGE","GP_ID":"201174300","APOAPSIS":"548.241","OBJECT_TYPE":"PAYLOAD","NORAD_CAT_ID":"48366","TIME_SYSTEM":"UTC","RA_OF_ASC_NODE":"272.4665","LAUNCH_DATE":"2021-05-04","SITE":"AFETR","EPOCH":"2022-04-13T20:22:02.678304","CLASSIFICATION_TYPE":"U","MEAN_MOTION_DDOT":"0.0000000000000","INCLINATION":"53.0548","REF_FRAME":"TEME","DECAY_DATE":null,"ECCENTRICITY":"0.00014880","EPHEMERIS_TYPE":"0","CENTER_NAME":"EARTH","TLE_LINE2":"2 48366  53.0548 272.4665 0001488  68.3961 291.7186 15.06400902 52255","BSTAR":"0.00024464000000"},{"ELEMENT_SET_NO":"999","MEAN_ELEMENT_THEORY":"SGP4","MEAN_MOTION":"15.06403901","FILE":"3400454","ARG_OF_PERICENTER":"54.1500","OBJECT_ID":"2021-038Q","PERIOD":"95.592","PERIAPSIS":"546.021","SEMIMAJOR_AXIS":"6925.337","TLE_LINE1":"1 48367U 21038Q   22103.84494245  .00002853  00000-0  21030-3 0  9997","MEAN_MOTION_DOT":"0.00002853","OBJECT_NAME":"STARLINK-2643","MEAN_ANOMALY":"305.9647","REV_AT_EPOCH":"5225","COUNTRY_CODE":"US","OBJECT_TYPE":"PAYLOAD","NORAD_CAT_ID":"48367","TIME_SYSTEM":"UTC","RA_OF_ASC_NODE":"272.4949","RCS_SIZE":"LARGE","GP_ID":"201175552","APOAPSIS":"548.382","CLASSIFICATION_TYPE":"U","MEAN_MOTION_DDOT":"0.0000000000000","LAUNCH_DATE":"2021-05-04","SITE":"AFETR","EPOCH":"2022-04-13T20:16:43.027680","INCLINATION":"53.0543","EPHEMERIS_TYPE":"0","CENTER_NAME":"EARTH","TLE_LINE2":"2 48367  53.0543 272.4949 0001705  54.1500 305.9647 15.06403901 52252","BSTAR":"0.00021030000000","REF_FRAME":"TEME","ECCENTRICITY":"0.00017050","DECAY_DATE":null},{"REV_AT_EPOCH":"5225","COUNTRY_CODE":"US","NORAD_CAT_ID":"48368","OBJECT_TYPE":"PAYLOAD","RA_OF_ASC_NODE":"272.6967","TIME_SYSTEM":"UTC","GP_ID":"201175803","RCS_SIZE":"LARGE","APOAPSIS":"548.220","ELEMENT_SET_NO":"999","MEAN_MOTION":"15.06419852","MEAN_ELEMENT_THEORY":"SGP4","FILE":"3400454","PERIAPSIS":"546.086","SEMIMAJOR_AXIS":"6925.288","PERIOD":"95.591","ARG_OF_PERICENTER":"48.4439","OBJECT_ID":"2021-038R","TLE_LINE1":"1 48368U 21038R   22103.79607957  .00014625  00000-0  99818-3 0  9997","OBJECT_NAME":"STARLINK-2623","MEAN_ANOMALY":"311.6682","MEAN_MOTION_DOT":"0.00014625","CENTER_NAME":"EARTH","EPHEMERIS_TYPE":"0","TLE_LINE2":"2 48368  53.0540 272.6967 0001541  48.4439 311.6682 15.06419852 52252","BSTAR":"0.00099818000000","REF_FRAME":"TEME","ECCENTRICITY":"0.00015410","DECAY_DATE":null,"CLASSIFICATION_TYPE":"U","MEAN_MOTION_DDOT":"0.0000000000000","SITE":"AFETR","LAUNCH_DATE":"2021-05-04","EPOCH":"2022-04-13T19:06:21.274848","INCLINATION":"53.0540"},{"REF_FRAME":"TEME","ECCENTRICITY":"0.00016800","DECAY_DATE":null,"EPHEMERIS_TYPE":"0","CENTER_NAME":"EARTH","BSTAR":"0.00006987300000","TLE_LINE2":"2 48369  53.0570 272.4987 0001680  58.0344 302.0808 15.06393653 52256","LAUNCH_DATE":"2021-05-04","SITE":"AFETR","EPOCH":"2022-04-13T20:11:24.965952","CLASSIFICATION_TYPE":"U","MEAN_MOTION_DDOT":"0.0000000000000","INCLINATION":"53.0570","COUNTRY_CODE":"US","REV_AT_EPOCH":"5225","RCS_SIZE":"LARGE","GP_ID":"201174551","APOAPSIS":"548.396","OBJECT_TYPE":"PAYLOAD","NORAD_CAT_ID":"48369","RA_OF_ASC_NODE":"272.4987","TIME_SYSTEM":"UTC","FILE":"3400454","ARG_OF_PERICENTER":"58.0344","OBJECT_ID":"2021-038S","SEMIMAJOR_AXIS":"6925.368","PERIAPSIS":"546.070","PERIOD":"95.593","ELEMENT_SET_NO":"999","MEAN_ELEMENT_THEORY":"SGP4","MEAN_MOTION":"15.06393653","MEAN_MOTION_DOT":"0.00000759","OBJECT_NAME":"STARLINK-2641","MEAN_ANOMALY":"302.0808","TLE_LINE1":"1 48369U 21038S   22103.84126118  .00000759  00000-0  69873-4 0  9991"},{"TLE_LINE1":"1 48370U 21038T   22103.83758242  .00000308  00000-0  39548-4 0  9997","MEAN_MOTION_DOT":"0.00000308","MEAN_ANOMALY":"300.6761","OBJECT_NAME":"STARLINK-2621","ELEMENT_SET_NO":"999","MEAN_ELEMENT_THEORY":"SGP4","MEAN_MOTION":"15.06399107","FILE":"3400454","ARG_OF_PERICENTER":"59.4392","OBJECT_ID":"2021-038T","PERIOD":"95.592","PERIAPSIS":"546.064","SEMIMAJOR_AXIS":"6925.351","OBJECT_TYPE":"PAYLOAD","NORAD_CAT_ID":"48370","RA_OF_ASC_NODE":"272.5185","TIME_SYSTEM":"UTC","RCS_SIZE":"LARGE","GP_ID":"201174801","APOAPSIS":"548.369","REV_AT_EPOCH":"5225","COUNTRY_CODE":"US","INCLINATION":"53.0562","CLASSIFICATION_TYPE":"U","MEAN_MOTION_DDOT":"0.0000000000000","LAUNCH_DATE":"2021-05-04","SITE":"AFETR","EPOCH":"2022-04-13T20:06:07.121088","EPHEMERIS_TYPE":"0","CENTER_NAME":"EARTH","TLE_LINE2":"2 48370  53.0562 272.5185 0001664  59.4392 300.6761 15.06399107 52252","BSTAR":"0.00003954800000","REF_FRAME":"TEME","DECAY_DATE":null,"ECCENTRICITY":"0.00016640"},{"RCS_SIZE":"LARGE","GP_ID":"201175052","APOAPSIS":"548.228","OBJECT_TYPE":"PAYLOAD","NORAD_CAT_ID":"48371","TIME_SYSTEM":"UTC","RA_OF_ASC_NODE":"272.8432","COUNTRY_CODE":"US","REV_AT_EPOCH":"5224","MEAN_MOTION_DOT":"0.00000800","MEAN_ANOMALY":"295.1354","OBJECT_NAME":"STARLINK-2589","TLE_LINE1":"1 48371U 21038U   22103.76754098  .00000800  00000-0  72596-4 0  9992","FILE":"3400454","ARG_OF_PERICENTER":"64.9785","OBJECT_ID":"2021-038U","PERIAPSIS":"546.228","PERIOD":"95.592","SEMIMAJOR_AXIS":"6925.363","ELEMENT_SET_NO":"999","MEAN_ELEMENT_THEORY":"SGP4","MEAN_MOTION":"15.06395312","REF_FRAME":"TEME","DECAY_DATE":null,"ECCENTRICITY":"0.00014440","EPHEMERIS_TYPE":"0","CENTER_NAME":"EARTH","BSTAR":"0.00007259600000","TLE_LINE2":"2 48371  53.0550 272.8432 0001444  64.9785 295.1354 15.06395312 52240","INCLINATION":"53.0550","LAUNCH_DATE":"2021-05-04","SITE":"AFETR","EPOCH":"2022-04-13T18:25:15.540672","CLASSIFICATION_TYPE":"U","MEAN_MOTION_DDOT":"0.0000000000000"},{"FILE":"3400454","OBJECT_ID":"2021-038V","ARG_OF_PERICENTER":"52.1860","PERIAPSIS":"545.906","SEMIMAJOR_AXIS":"6925.370","PERIOD":"95.593","ELEMENT_SET_NO":"999","MEAN_ELEMENT_THEORY":"SGP4","MEAN_MOTION":"15.06393122","MEAN_MOTION_DOT":"0.00000235","OBJECT_NAME":"STARLINK-2572","MEAN_ANOMALY":"307.9303","TLE_LINE1":"1 48372U 21038V   22103.83021114  .00000235  00000-0  34680-4 0  9991","COUNTRY_CODE":"US","REV_AT_EPOCH":"5225","RCS_SIZE":"LARGE","GP_ID":"201175303","APOAPSIS":"548.563","OBJECT_TYPE":"PAYLOAD","NORAD_CAT_ID":"48372","TIME_SYSTEM":"UTC","RA_OF_ASC_NODE":"272.5614","LAUNCH_DATE":"2021-05-04","SITE":"AFETR","EPOCH":"2022-04-13T19:55:30.242496","CLASSIFICATION_TYPE":"U","MEAN_MOTION_DDOT":"0.0000000000000","INCLINATION":"53.0547","REF_FRAME":"TEME","ECCENTRICITY":"0.00019180","DECAY_DATE":null,"EPHEMERIS_TYPE":"0","CENTER_NAME":"EARTH","BSTAR":"0.00003468000000","TLE_LINE2":"2 48372  53.0547 272.5614 0001918  52.1860 307.9303 15.06393122 52259"},{"EPOCH":"2022-04-13T18:14:39.516576","LAUNCH_DATE":"2021-05-04","SITE":"AFETR","MEAN_MOTION_DDOT":"0.0000000000000","CLASSIFICATION_TYPE":"U","INCLINATION":"53.0524","DECAY_DATE":null,"ECCENTRICITY":"0.00015100","REF_FRAME":"TEME","BSTAR":"0.00138230000000","TLE_LINE2":"2 48373  53.0524 272.8771 0001510  68.1038 292.0111 15.06425053 52243","EPHEMERIS_TYPE":"0","CENTER_NAME":"EARTH","ARG_OF_PERICENTER":"68.1038","OBJECT_ID":"2021-038W","PERIAPSIS":"546.091","PERIOD":"95.591","SEMIMAJOR_AXIS":"6925.272","FILE":"3400454","MEAN_ELEMENT_THEORY":"SGP4","MEAN_MOTION":"15.06425053","ELEMENT_SET_NO":"999","MEAN_MOTION_DOT":"0.00020382","MEAN_ANOMALY":"292.0111","OBJECT_NAME":"STARLINK-2609","TLE_LINE1":"1 48373U 21038W   22103.76017959  .00020382  00000-0  13823-2 0  9995","COUNTRY_CODE":"US","REV_AT_EPOCH":"5224","APOAPSIS":"548.182","RCS_SIZE":"LARGE","GP_ID":"201174051","RA_OF_ASC_NODE":"272.8771","TIME_SYSTEM":"UTC","OBJECT_TYPE":"PAYLOAD","NORAD_CAT_ID":"48373"},{"SITE":"AFETR","LAUNCH_DATE":"2021-05-04","EPOCH":"2022-04-13T18:09:19.624032","CLASSIFICATION_TYPE":"U","MEAN_MOTION_DDOT":"0.0000000000000","INCLINATION":"53.0545","REF_FRAME":"TEME","ECCENTRICITY":"0.00015090","DECAY_DATE":null,"CENTER_NAME":"EARTH","EPHEMERIS_TYPE":"0","BSTAR":"0.00024361000000","TLE_LINE2":"2 48374  53.0545 272.8880 0001509  56.4415 303.6717 15.06403642 52246","FILE":"3400454","PERIOD":"95.592","PERIAPSIS":"546.157","SEMIMAJOR_AXIS":"6925.337","OBJECT_ID":"2021-038X","ARG_OF_PERICENTER":"56.4415","ELEMENT_SET_NO":"999","MEAN_MOTION":"15.06403642","MEAN_ELEMENT_THEORY":"SGP4","MEAN_ANOMALY":"303.6717","OBJECT_NAME":"STARLINK-2604","MEAN_MOTION_DOT":"0.00003349","TLE_LINE1":"1 48374U 21038X   22103.75647713  .00003349  00000-0  24361-3 0  9996","COUNTRY_CODE":"US","REV_AT_EPOCH":"5224","GP_ID":"201174301","RCS_SIZE":"LARGE","APOAPSIS":"548.247","NORAD_CAT_ID":"48374","OBJECT_TYPE":"PAYLOAD","TIME_SYSTEM":"UTC","RA_OF_ASC_NODE":"272.8880"}];
